{"fetched_at":"2026-04-01T16:59:04Z","count":11445,"tles":[{"name":"STARLINK-37136","line1":"1 68347U 26059AC  26090.66668981 -.01966979  00000+0 -98087-2 0  9999","line2":"2 68347  53.1593 252.5226 0000681  79.0676 240.3322 15.84180643  2570","category":"Starlink"}]}